{"type":"FeatureCollection","features":[{"type":"Feature","geometry":{"type":"Point","coordinates":[114.18874,22.33568]},"properties":{"hospital_id":0,"institution_eng":"Hong Kong Buddhist Hospital","institution_tc":"香港佛教醫院","cluster_eng":"Kowloon Central Cluster","address_eng":"10 Heng Lam Street, Lok Fu, KLN","with_ae":false,"latitude":22.33568,"longitude":114.18874,"x_hk80":837490.3675788479,"y_hk80":821846.7998961859,"node_id":1501,"snap_dist_m":221.1487699635514,"grid_count":39,"grid_share":0.010836343428730202,"mean_m":142.96200000000005,"median_m":0,"p90_m":746.9098000000006}},{"type":"Feature","geometry":{"type":"Point","coordinates":[114.20886,22.315757]},"properties":{"hospital_id":1,"institution_eng":"Hong Kong Children's Hospital","institution_tc":"香港兒童醫院","cluster_eng":"Kowloon Central Cluster","address_eng":"1 Shing Cheong Road, Kowloon Bay, KLN","with_ae":false,"latitude":22.315757,"longitude":114.20886,"x_hk80":839563.5468888505,"y_hk80":819640.932953302,"node_id":1714,"snap_dist_m":1187.9624094638466,"grid_count":7,"grid_share":0.001944984717977216,"mean_m":0,"median_m":0,"p90_m":0}},{"type":"Feature","geometry":{"type":"Point","coordinates":[114.18462,22.324927]},"properties":{"hospital_id":2,"institution_eng":"Hong Kong Eye Hospital","institution_tc":"香港眼科醫院","cluster_eng":"Kowloon Central Cluster","address_eng":"147K Argyle Street, KLN","with_ae":false,"latitude":22.324927,"longitude":114.18462,"x_hk80":837065.9972704238,"y_hk80":820656.040540917,"node_id":1173,"snap_dist_m":105.80901823336073,"grid_count":473,"grid_share":0.1314253959433176,"mean_m":1401.9351458773785,"median_m":1466.855,"p90_m":2200.662}},{"type":"Feature","geometry":{"type":"Point","coordinates":[114.20674,22.31764]},"properties":{"hospital_id":3,"institution_eng":"Kai Tak Hospital","institution_tc":"啟德醫院","cluster_eng":"Kowloon Central Cluster","address_eng":"2-3 Shing Cheong Road, Kowloon Bay, Kowloon","with_ae":false,"latitude":22.31764,"longitude":114.20674,"x_hk80":839345.0775707051,"y_hk80":819849.4014727245,"node_id":1714,"snap_dist_m":890.5485767917663,"grid_count":0,"grid_share":0,"mean_m":null,"median_m":null,"p90_m":null}},{"type":"Feature","geometry":{"type":"Point","coordinates":[114.17957,22.323708]},"properties":{"hospital_id":4,"institution_eng":"Kowloon Hospital","institution_tc":"九龍醫院","cluster_eng":"Kowloon Central Cluster","address_eng":"147A Argyle Street, KLN","with_ae":false,"latitude":22.323708,"longitude":114.17957,"x_hk80":836545.7218216126,"y_hk80":820521.0367225419,"node_id":1723,"snap_dist_m":80.43870067292339,"grid_count":355,"grid_share":0.09863851069741594,"mean_m":1692.472025352113,"median_m":1732.1720000000005,"p90_m":2393.814200000002}},{"type":"Feature","geometry":{"type":"Point","coordinates":[114.1721,22.31429]},"properties":{"hospital_id":5,"institution_eng":"Kwong Wah Hospital","institution_tc":"廣華醫院","cluster_eng":"Kowloon Central Cluster","address_eng":"25 Waterloo Road, KLN","with_ae":true,"latitude":22.31429,"longitude":114.1721,"x_hk80":835776.0832462141,"y_hk80":819478.1426191585,"node_id":599,"snap_dist_m":12.878331288835879,"grid_count":600,"grid_share":0.1667129758266185,"mean_m":2018.1290183333335,"median_m":2309.309,"p90_m":3118.3079000000007}},{"type":"Feature","geometry":{"type":"Point","coordinates":[114.19657,22.345588]},"properties":{"hospital_id":6,"institution_eng":"Our Lady of Maryknoll Hospital","institution_tc":"聖母醫院","cluster_eng":"Kowloon Central Cluster","address_eng":"118 Shatin Pass Road, Wong Tai Sin, KLN","with_ae":false,"latitude":22.345588,"longitude":114.19657,"x_hk80":838296.8503947172,"y_hk80":822944.0466848894,"node_id":329,"snap_dist_m":1353.6118718873822,"grid_count":11,"grid_share":0.0030564045568213394,"mean_m":0,"median_m":0,"p90_m":0}},{"type":"Feature","geometry":{"type":"Point","coordinates":[114.17519,22.30886]},"properties":{"hospital_id":7,"institution_eng":"Queen Elizabeth Hospital","institution_tc":"伊利沙伯醫院","cluster_eng":"Kowloon Central Cluster","address_eng":"30 Gascoigne Road, KLN","with_ae":true,"latitude":22.30886,"longitude":114.17519,"x_hk80":836094.449099916,"y_hk80":818876.847157803,"node_id":966,"snap_dist_m":123.64970462052295,"grid_count":1239,"grid_share":0.3442622950819672,"mean_m":2198.508357546408,"median_m":2180.603,"p90_m":2488.619800000001}},{"type":"Feature","geometry":{"type":"Point","coordinates":[114.17529,22.275909]},"properties":{"hospital_id":8,"institution_eng":"Ruttonjee Hospital","institution_tc":"律敦治醫院","cluster_eng":"Hong Kong Island Cluster","address_eng":"266 Queen's Road East, Wan Chai, HK","with_ae":true,"latitude":22.275909,"longitude":114.17529,"x_hk80":836104.7156493618,"y_hk80":815228.0406674852,"node_id":395,"snap_dist_m":1256.7042164274537,"grid_count":69,"grid_share":0.019171992220061128,"mean_m":0,"median_m":0,"p90_m":0}},{"type":"Feature","geometry":{"type":"Point","coordinates":[114.17774,22.275313]},"properties":{"hospital_id":9,"institution_eng":"Tang Shiu Kin Hospital","institution_tc":"鄧肇堅醫院","cluster_eng":"Hong Kong Island Cluster","address_eng":"282 Queen's Road East, Wan Chai, HK","with_ae":false,"latitude":22.275313,"longitude":114.17774,"x_hk80":836357.2161780621,"y_hk80":815162.0426310682,"node_id":395,"snap_dist_m":1170.5322286447,"grid_count":0,"grid_share":0,"mean_m":null,"median_m":null,"p90_m":null}},{"type":"Feature","geometry":{"type":"Point","coordinates":[114.14457,22.286146]},"properties":{"hospital_id":10,"institution_eng":"Tsan Yuk Hospital","institution_tc":"贊育醫院","cluster_eng":"Hong Kong Island Cluster","address_eng":"30 Hospital Road, Sai Ying Pun, HK","with_ae":false,"latitude":22.286146,"longitude":114.14457,"x_hk80":832938.9150431225,"y_hk80":816361.9803546558,"node_id":74,"snap_dist_m":438.39248253063147,"grid_count":169,"grid_share":0.046957488191164215,"mean_m":349.15813017751475,"median_m":0,"p90_m":2043.513}},{"type":"Feature","geometry":{"type":"Point","coordinates":[114.19026,22.274725]},"properties":{"hospital_id":11,"institution_eng":"Tung Wah Eastern Hospital","institution_tc":"東華東院","cluster_eng":"Hong Kong Island Cluster","address_eng":"19 Eastern Hospital Road, Causeway Bay, HK","with_ae":false,"latitude":22.274725,"longitude":114.19026,"x_hk80":837647.5546318229,"y_hk80":815096.9922292085,"node_id":394,"snap_dist_m":1319.5922966241972,"grid_count":174,"grid_share":0.048346762989719363,"mean_m":0,"median_m":0,"p90_m":0}},{"type":"Feature","geometry":{"type":"Point","coordinates":[114.19632,22.346808]},"properties":{"hospital_id":12,"institution_eng":"Tung Wah Group of Hospitals Wong Tai Sin Hospital","institution_tc":"東華三院黃大仙醫院","cluster_eng":"Kowloon Central Cluster","address_eng":"124 Shatin Pass Road, Wong Tai Sin, KLN","with_ae":false,"latitude":22.346808,"longitude":114.19632,"x_hk80":838271.0803847149,"y_hk80":823079.1400938196,"node_id":329,"snap_dist_m":1486.6186973940723,"grid_count":0,"grid_share":0,"mean_m":null,"median_m":null,"p90_m":null}},{"type":"Feature","geometry":{"type":"Point","coordinates":[114.14661,22.284955]},"properties":{"hospital_id":13,"institution_eng":"Tung Wah Hospital","institution_tc":"東華醫院","cluster_eng":"Hong Kong Island Cluster","address_eng":"12 Po Yan Street, Sheung Wan, HK","with_ae":false,"latitude":22.284955,"longitude":114.14661,"x_hk80":833149.1183922915,"y_hk80":816230.0524135154,"node_id":74,"snap_dist_m":537.5750160536096,"grid_count":0,"grid_share":0,"mean_m":null,"median_m":null,"p90_m":null}}]}